ONEWEB-0706             
1 61611U 24188T   25027.91667824  .00000013  00000+0  00000+0 0  9999
2 61611  87.8757 136.9349 0002327 266.0288 232.3004 13.27984069 15223
ONEWEB-0707             
1 61612U 24188U   25027.91667824  .00000013  00000+0  00000+0 0  9990
2 61612  87.8903 136.9455 0002891 356.0555 303.9583 13.26497897 15165
ONEWEB-0708             
1 61613U 24188V   25027.91667824  .00000013  00000+0  00000+0 0  9991
2 61613  87.8754 136.9365 0002044 286.7289 228.4076 13.23801189 15385
